[{"OBJECT_NAME":"STARLINK-2514","OBJECT_ID":"2021-036BH","EPOCH":"2026-03-10T00:00:02.999808","MEAN_MOTION":15.29233473,"ECCENTRICITY":0.00013984,"INCLINATION":53.1518,"RA_OF_ASC_NODE":99.2959,"ARG_OF_PERICENTER":94.8931,"MEAN_ANOMALY":6.894,"EPHEMERIS_TYPE":0,"CLASSIFICATION_TYPE":"U","NORAD_CAT_ID":48331,"ELEMENT_SET_NO":999,"REV_AT_EPOCH":579,"BSTAR":0.0039897327,"MEAN_MOTION_DOT":0.00116147,"MEAN_MOTION_DDOT":0},{"OBJECT_NAME":"CZ-4B R\/B","OBJECT_ID":"2004-035C","EPOCH":"2026-03-09T23:23:31.358400","MEAN_MOTION":15.2906998,"ECCENTRICITY":0.00309852,"INCLINATION":97.3501,"RA_OF_ASC_NODE":103.2135,"ARG_OF_PERICENTER":330.5139,"MEAN_ANOMALY":29.4353,"EPHEMERIS_TYPE":0,"CLASSIFICATION_TYPE":"U","NORAD_CAT_ID":28415,"ELEMENT_SET_NO":999,"REV_AT_EPOCH":17995,"BSTAR":0.00034109099,"MEAN_MOTION_DOT":9.691e-5,"MEAN_MOTION_DDOT":0}]
